{"type": "FeatureCollection", "features": [{"type": "Feature", "properties": {"NAME_1": "Pomurska"}, "geometry": {"type": "Polygon", "coordinates": [[[16.0, 46.9], [16.3, 46.9], [16.3, 46.6], [16.0, 46.6], [16.0, 46.9]]]}}, {"type": "Feature", "properties": {"NAME_1": "Podravska"}, "geometry": {"type": "Polygon", "coordinates": [[[15.8, 46.7], [16.1, 46.7], [16.1, 46.4], [15.8, 46.4], [15.8, 46.7]]]}}, {"type": "Feature", "properties": {"NAME_1": "Koro\u0161ka"}, "geometry": {"type": "Polygon", "coordinates": [[[15.0, 46.6], [15.3, 46.6], [15.3, 46.4], [15.0, 46.4], [15.0, 46.6]]]}}, {"type": "Feature", "properties": {"NAME_1": "Savinjska"}, "geometry": {"type": "Polygon", "coordinates": [[[15.1, 46.4], [15.5, 46.4], [15.5, 46.1], [15.1, 46.1], [15.1, 46.4]]]}}, {"type": "Feature", "properties": {"NAME_1": "Zasavska"}, "geometry": {"type": "Polygon", "coordinates": [[[14.9, 46.2], [15.2, 46.2], [15.2, 46.0], [14.9, 46.0], [14.9, 46.2]]]}}, {"type": "Feature", "properties": {"NAME_1": "Posavska"}, "geometry": {"type": "Polygon", "coordinates": [[[15.3, 46.1], [15.6, 46.1], [15.6, 45.9], [15.3, 45.9], [15.3, 46.1]]]}}, {"type": "Feature", "properties": {"NAME_1": "Jugovzhodna Slovenija"}, "geometry": {"type": "Polygon", "coordinates": [[[14.9, 45.9], [15.3, 45.9], [15.3, 45.6], [14.9, 45.6], [14.9, 45.9]]]}}, {"type": "Feature", "properties": {"NAME_1": "Osrednjeslovenska"}, "geometry": {"type": "Polygon", "coordinates": [[[14.2, 46.1], [14.7, 46.1], [14.7, 45.9], [14.2, 45.9], [14.2, 46.1]]]}}, {"type": "Feature", "properties": {"NAME_1": "Gorenjska"}, "geometry": {"type": "Polygon", "coordinates": [[[13.8, 46.3], [14.3, 46.3], [14.3, 46.0], [13.8, 46.0], [13.8, 46.3]]]}}, {"type": "Feature", "properties": {"NAME_1": "Primorsko-notranjska"}, "geometry": {"type": "Polygon", "coordinates": [[[14.0, 45.9], [14.4, 45.9], [14.4, 45.6], [14.0, 45.6], [14.0, 45.9]]]}}, {"type": "Feature", "properties": {"NAME_1": "Gori\u0161ka"}, "geometry": {"type": "Polygon", "coordinates": [[[13.5, 46.0], [13.9, 46.0], [13.9, 45.7], [13.5, 45.7], [13.5, 46.0]]]}}, {"type": "Feature", "properties": {"NAME_1": "Obalno-kra\u0161ka"}, "geometry": {"type": "Polygon", "coordinates": [[[13.5, 45.7], [13.8, 45.7], [13.8, 45.5], [13.5, 45.5], [13.5, 45.7]]]}}]}